start=new Date('2022-11-09T00:00:00.000Z').valueOf();
sats=[{"TLE_LINE2":"2 48442  53.0541 246.5218 0001933  53.7814 306.3353 15.06404065 83144","FILE":"3648805","REV_AT_EPOCH":"8314","TLE_LINE1":"1 48442U 21040Q   22312.34102252  .00005467  00000-0  38562-3 0  9997","INCLINATION":"53.0541","GP_ID":"217170743","RCS_SIZE":"LARGE","EPOCH":"2022-11-08T08:11:04.345728","OBJECT_NAME":"STARLINK-2644","CLASSIFICATION_TYPE":"U","SITE":"AFETR","ARG_OF_PERICENTER":"53.7814","OBJECT_ID":"2021-040Q","APOAPSIS":"548.540","OBJECT_TYPE":"PAYLOAD","ELEMENT_SET_NO":"999","ECCENTRICITY":"0.00019330","DECAY_DATE":null,"COUNTRY_CODE":"US","MEAN_ANOMALY":"306.3353","REF_FRAME":"TEME","CENTER_NAME":"EARTH","MEAN_MOTION":"15.06404065","MEAN_MOTION_DOT":"0.00005467","RA_OF_ASC_NODE":"246.5218","LAUNCH_DATE":"2021-05-09","PERIAPSIS":"545.862","NORAD_CAT_ID":"48442","EPHEMERIS_TYPE":"0","BSTAR":"0.00038562000000","PERIOD":"95.592","MEAN_ELEMENT_THEORY":"SGP4","TIME_SYSTEM":"UTC","SEMIMAJOR_AXIS":"6925.336","MEAN_MOTION_DDOT":"0.0000000000000"},{"GP_ID":"217170488","REV_AT_EPOCH":"8312","TLE_LINE1":"1 48443U 21040R   22312.20463674  .00005543  00000-0  39059-3 0  9998","INCLINATION":"53.0532","FILE":"3648805","TLE_LINE2":"2 48443  53.0532 247.1309 0001646  58.4476 301.6673 15.06410075 83129","ELEMENT_SET_NO":"999","OBJECT_TYPE":"PAYLOAD","APOAPSIS":"548.323","OBJECT_ID":"2021-040R","ARG_OF_PERICENTER":"58.4476","SITE":"AFETR","CLASSIFICATION_TYPE":"U","OBJECT_NAME":"STARLINK-2663","EPOCH":"2022-11-08T04:54:40.614336","RCS_SIZE":"LARGE","CENTER_NAME":"EARTH","REF_FRAME":"TEME","MEAN_ANOMALY":"301.6673","DECAY_DATE":null,"ECCENTRICITY":"0.00016460","COUNTRY_CODE":"US","MEAN_MOTION_DDOT":"0.0000000000000","SEMIMAJOR_AXIS":"6925.318","TIME_SYSTEM":"UTC","MEAN_ELEMENT_THEORY":"SGP4","PERIOD":"95.592","BSTAR":"0.00039059000000","EPHEMERIS_TYPE":"0","NORAD_CAT_ID":"48443","PERIAPSIS":"546.043","LAUNCH_DATE":"2021-05-09","RA_OF_ASC_NODE":"247.1309","MEAN_MOTION_DOT":"0.00005543","MEAN_MOTION":"15.06410075"},{"NORAD_CAT_ID":"48444","PERIAPSIS":"545.822","LAUNCH_DATE":"2021-05-09","RA_OF_ASC_NODE":"246.8471","MEAN_MOTION_DOT":"0.00004444","MEAN_MOTION":"15.06406306","MEAN_MOTION_DDOT":"0.0000000000000","SEMIMAJOR_AXIS":"6925.329","TIME_SYSTEM":"UTC","MEAN_ELEMENT_THEORY":"SGP4","PERIOD":"95.592","EPHEMERIS_TYPE":"0","BSTAR":"0.00031701000000","MEAN_ANOMALY":"307.6455","COUNTRY_CODE":"US","DECAY_DATE":null,"ECCENTRICITY":"0.00019820","CENTER_NAME":"EARTH","REF_FRAME":"TEME","SITE":"AFETR","OBJECT_NAME":"STARLINK-2645","CLASSIFICATION_TYPE":"U","EPOCH":"2022-11-08T06:24:54.739008","RCS_SIZE":"LARGE","OBJECT_TYPE":"PAYLOAD","ELEMENT_SET_NO":"999","APOAPSIS":"548.567","OBJECT_ID":"2021-040S","ARG_OF_PERICENTER":"52.4713","TLE_LINE2":"2 48444  53.0551 246.8471 0001982  52.4713 307.6455 15.06406306 83135","GP_ID":"217169744","INCLINATION":"53.0551","TLE_LINE1":"1 48444U 21040S   22312.26730022  .00004444  00000-0  31701-3 0  9994","REV_AT_EPOCH":"8313","FILE":"3648805"},{"REF_FRAME":"TEME","CENTER_NAME":"EARTH","DECAY_DATE":null,"ECCENTRICITY":"0.00022830","COUNTRY_CODE":"US","MEAN_ANOMALY":"318.8742","EPHEMERIS_TYPE":"0","BSTAR":"0.00036909000000","PERIOD":"95.590","MEAN_ELEMENT_THEORY":"SGP4","TIME_SYSTEM":"UTC","SEMIMAJOR_AXIS":"6925.266","MEAN_MOTION_DDOT":"0.0000000000000","MEAN_MOTION":"15.06426993","MEAN_MOTION_DOT":"0.00005224","RA_OF_ASC_NODE":"244.4802","LAUNCH_DATE":"2021-05-09","PERIAPSIS":"545.550","NORAD_CAT_ID":"48445","FILE":"3649076","TLE_LINE1":"1 48445U 21040T   22312.79437520  .00005224  00000-0  36909-3 0  9992","INCLINATION":"53.0543","REV_AT_EPOCH":"8321","GP_ID":"217200285","TLE_LINE2":"2 48445  53.0543 244.4802 0002283  41.2419 318.8742 15.06426993 83219","ARG_OF_PERICENTER":"41.2419","OBJECT_ID":"2021-040T","APOAPSIS":"548.712","OBJECT_TYPE":"PAYLOAD","ELEMENT_SET_NO":"999","RCS_SIZE":"LARGE","EPOCH":"2022-11-08T19:03:54.017280","OBJECT_NAME":"STARLINK-2634","CLASSIFICATION_TYPE":"U","SITE":"AFETR"},{"REF_FRAME":"TEME","CENTER_NAME":"EARTH","MEAN_ANOMALY":"319.9703","DECAY_DATE":null,"ECCENTRICITY":"0.00022100","COUNTRY_CODE":"US","TIME_SYSTEM":"UTC","SEMIMAJOR_AXIS":"6925.354","MEAN_MOTION_DDOT":"0.0000000000000","PERIOD":"95.592","BSTAR":"0.00032158000000","EPHEMERIS_TYPE":"0","MEAN_ELEMENT_THEORY":"SGP4","LAUNCH_DATE":"2021-05-09","RA_OF_ASC_NODE":"247.1818","NORAD_CAT_ID":"48446","PERIAPSIS":"545.689","MEAN_MOTION_DOT":"0.00004511","MEAN_MOTION":"15.06398134","TLE_LINE1":"1 48446U 21040U   22312.19357629  .00004511  00000-0  32158-3 0  9998","REV_AT_EPOCH":"8312","INCLINATION":"53.0545","FILE":"3648805","GP_ID":"217170243","TLE_LINE2":"2 48446  53.0545 247.1818 0002210  40.1449 319.9703 15.06398134 83124","ELEMENT_SET_NO":"999","OBJECT_TYPE":"PAYLOAD","ARG_OF_PERICENTER":"40.1449","APOAPSIS":"548.750","OBJECT_ID":"2021-040U","SITE":"AFETR","OBJECT_NAME":"STARLINK-2247","CLASSIFICATION_TYPE":"U","EPOCH":"2022-11-08T04:38:44.991456","RCS_SIZE":"LARGE"},{"DECAY_DATE":null,"ECCENTRICITY":"0.00017940","COUNTRY_CODE":"US","MEAN_ANOMALY":"311.4889","REF_FRAME":"TEME","CENTER_NAME":"EARTH","MEAN_MOTION":"15.06403462","MEAN_MOTION_DOT":"0.00004876","RA_OF_ASC_NODE":"247.1998","LAUNCH_DATE":"2021-05-09","PERIAPSIS":"545.961","NORAD_CAT_ID":"48447","EPHEMERIS_TYPE":"0","BSTAR":"0.00034600000000","PERIOD":"95.592","MEAN_ELEMENT_THEORY":"SGP4","SEMIMAJOR_AXIS":"6925.338","TIME_SYSTEM":"UTC","MEAN_MOTION_DDOT":"0.0000000000000","TLE_LINE2":"2 48447  53.0547 247.1998 0001794  48.6254 311.4889 15.06403462 83122","FILE":"3648805","TLE_LINE1":"1 48447U 21040V   22312.18989971  .00004876  00000-0  34600-3 0  9997","INCLINATION":"53.0547","REV_AT_EPOCH":"8312","GP_ID":"217170989","RCS_SIZE":"LARGE","OBJECT_NAME":"STARLINK-2269","EPOCH":"2022-11-08T04:33:27.334944","CLASSIFICATION_TYPE":"U","SITE":"AFETR","ARG_OF_PERICENTER":"48.6254","OBJECT_ID":"2021-040V","APOAPSIS":"548.445","ELEMENT_SET_NO":"999","OBJECT_TYPE":"PAYLOAD"},{"CENTER_NAME":"EARTH","REF_FRAME":"TEME","MEAN_ANOMALY":"320.6726","DECAY_DATE":null,"COUNTRY_CODE":"US","ECCENTRICITY":"0.00021820","MEAN_MOTION_DDOT":"0.0000000000000","SEMIMAJOR_AXIS":"6925.301","TIME_SYSTEM":"UTC","MEAN_ELEMENT_THEORY":"SGP4","PERIOD":"95.591","EPHEMERIS_TYPE":"0","BSTAR":"0.00045724000000","NORAD_CAT_ID":"48448","PERIAPSIS":"545.655","LAUNCH_DATE":"2021-05-09","RA_OF_ASC_NODE":"246.7839","MEAN_MOTION_DOT":"0.00006538","MEAN_MOTION":"15.06415638","GP_ID":"217169244","TLE_LINE1":"1 48448U 21040W   22312.28109860  .00006538  00000-0  45724-3 0  9996","INCLINATION":"53.0537","REV_AT_EPOCH":"8313","FILE":"3648805","TLE_LINE2":"2 48448  53.0537 246.7839 0002182  39.4422 320.6726 15.06415638 83139","OBJECT_TYPE":"PAYLOAD","ELEMENT_SET_NO":"999","APOAPSIS":"548.677","OBJECT_ID":"2021-040W","ARG_OF_PERICENTER":"39.4422","SITE":"AFETR","EPOCH":"2022-11-08T06:44:46.919040","OBJECT_NAME":"STARLINK-2632","CLASSIFICATION_TYPE":"U","RCS_SIZE":"LARGE"},{"REF_FRAME":"TEME","CENTER_NAME":"EARTH","MEAN_ANOMALY":"305.9517","COUNTRY_CODE":"US","DECAY_DATE":null,"ECCENTRICITY":"0.00017880","PERIOD":"95.590","BSTAR":"0.00074794000000","EPHEMERIS_TYPE":"0","MEAN_ELEMENT_THEORY":"SGP4","TIME_SYSTEM":"UTC","SEMIMAJOR_AXIS":"6925.261","MEAN_MOTION_DDOT":"0.0000000000000","MEAN_MOTION_DOT":"0.00010885","MEAN_MOTION":"15.06428541","LAUNCH_DATE":"2021-05-09","RA_OF_ASC_NODE":"244.2330","NORAD_CAT_ID":"48449","PERIAPSIS":"545.888","TLE_LINE1":"1 48449U 21040X   22312.84966774  .00010885  00000-0  74794-3 0  9993","REV_AT_EPOCH":"8322","INCLINATION":"53.0534","FILE":"3649076","GP_ID":"217200779","TLE_LINE2":"2 48449  53.0534 244.2330 0001788  54.1638 305.9517 15.06428541 83221","ARG_OF_PERICENTER":"54.1638","APOAPSIS":"548.364","OBJECT_ID":"2021-040X","ELEMENT_SET_NO":"999","OBJECT_TYPE":"PAYLOAD","RCS_SIZE":"LARGE","SITE":"AFETR","CLASSIFICATION_TYPE":"U","OBJECT_NAME":"STARLINK-2655","EPOCH":"2022-11-08T20:23:31.292736"},{"MEAN_MOTION":"15.06395936","MEAN_MOTION_DOT":"0.00004299","PERIAPSIS":"545.866","NORAD_CAT_ID":"48450","RA_OF_ASC_NODE":"246.9278","LAUNCH_DATE":"2021-05-09","MEAN_ELEMENT_THEORY":"SGP4","BSTAR":"0.00030739000000","EPHEMERIS_TYPE":"0","PERIOD":"95.592","MEAN_MOTION_DDOT":"0.0000000000000","TIME_SYSTEM":"UTC","SEMIMAJOR_AXIS":"6925.361","DECAY_DATE":null,"ECCENTRICITY":"0.00019640","COUNTRY_CODE":"US","MEAN_ANOMALY":"316.3522","CENTER_NAME":"EARTH","REF_FRAME":"TEME","RCS_SIZE":"LARGE","CLASSIFICATION_TYPE":"U","OBJECT_NAME":"STARLINK-2660","EPOCH":"2022-11-08T05:58:22.455264","SITE":"AFETR","OBJECT_ID":"2021-040Y","APOAPSIS":"548.586","ARG_OF_PERICENTER":"43.7623","OBJECT_TYPE":"PAYLOAD","ELEMENT_SET_NO":"999","TLE_LINE2":"2 48450  53.0545 246.9278 0001964  43.7623 316.3522 15.06395936 83132","GP_ID":"217170744","FILE":"3648805","REV_AT_EPOCH":"8313","TLE_LINE1":"1 48450U 21040Y   22312.24887101  .00004299  00000-0  30739-3 0  9998","INCLINATION":"53.0545"},{"MEAN_ELEMENT_THEORY":"SGP4","PERIOD":"95.591","BSTAR":"0.00067379000000","EPHEMERIS_TYPE":"0","MEAN_MOTION_DDOT":"0.0000000000000","TIME_SYSTEM":"UTC","SEMIMAJOR_AXIS":"6925.285","MEAN_MOTION_DOT":"0.00009774","MEAN_MOTION":"15.06420833","NORAD_CAT_ID":"48451","PERIAPSIS":"546.056","LAUNCH_DATE":"2021-05-09","RA_OF_ASC_NODE":"246.6688","CENTER_NAME":"EARTH","REF_FRAME":"TEME","MEAN_ANOMALY":"298.7149","DECAY_DATE":null,"ECCENTRICITY":"0.00015800","COUNTRY_CODE":"US","APOAPSIS":"548.244","OBJECT_ID":"2021-040Z","ARG_OF_PERICENTER":"61.3999","OBJECT_TYPE":"PAYLOAD","ELEMENT_SET_NO":"999","RCS_SIZE":"LARGE","SITE":"AFETR","CLASSIFICATION_TYPE":"U","EPOCH":"2022-11-08T07:32:33.776448","OBJECT_NAME":"STARLINK-2652","GP_ID":"217170489","REV_AT_EPOCH":"8314","TLE_LINE1":"1 48451U 21040Z   22312.31427982  .00009774  00000-0  67379-3 0  9997","INCLINATION":"53.0545","FILE":"3648805","TLE_LINE2":"2 48451  53.0545 246.6688 0001580  61.3999 298.7149 15.06420833 83145"}];
